[{"OBJECT_NAME":"SCS-01 J","OBJECT_ID":"2025-100J","EPOCH":"2026-03-09T22:31:25.904064","MEAN_MOTION":15.31338011,"ECCENTRICITY":0.00063909,"INCLINATION":97.3693,"RA_OF_ASC_NODE":145.4824,"ARG_OF_PERICENTER":272.025,"MEAN_ANOMALY":88.026,"EPHEMERIS_TYPE":0,"CLASSIFICATION_TYPE":"U","NORAD_CAT_ID":63990,"ELEMENT_SET_NO":999,"REV_AT_EPOCH":4563,"BSTAR":0.0011832888,"MEAN_MOTION_DOT":0.00035886,"MEAN_MOTION_DDOT":0},{"OBJECT_NAME":"STARLINK-35708","OBJECT_ID":"2025-247N","EPOCH":"2026-03-09T14:45:08.158464","MEAN_MOTION":15.30194602,"ECCENTRICITY":8.26e-5,"INCLINATION":53.1579,"RA_OF_ASC_NODE":191.6852,"ARG_OF_PERICENTER":112.4942,"MEAN_ANOMALY":247.6146,"EPHEMERIS_TYPE":0,"CLASSIFICATION_TYPE":"U","NORAD_CAT_ID":66277,"ELEMENT_SET_NO":999,"REV_AT_EPOCH":2107,"BSTAR":0.00054182,"MEAN_MOTION_DOT":0.00015719,"MEAN_MOTION_DDOT":0}]
